{"type": "FeatureCollection", "features": [ {"type": "Feature", "properties": {"norad_id": 34077, "name": "IRIDIUM 33 DEB", "group": "iridium-33-debris", "lat": 73.51566040488373, "lon": -139.48942943644064, "alt_km": 666.8191352236881, "timestamp": "2025-12-09T16:56:36.959127+00:00", "meta": {"OBJECT_NAME": "IRIDIUM 33 DEB", "OBJECT_ID": "1997-051CL", "EPOCH": "2025-12-09T11:35:53.625120", "MEAN_MOTION": 14.64763438, "ECCENTRICITY": 0.0010536, "INCLINATION": 86.3858, "RA_OF_ASC_NODE": 52.9416, "ARG_OF_PERICENTER": 49.8127, "MEAN_ANOMALY": 322.4549, "EPHEMERIS_TYPE": 0, "CLASSIFICATION_TYPE": "U", "NORAD_CAT_ID": 34077, "ELEMENT_SET_NO": 999, "REV_AT_EPOCH": 88285, "BSTAR": 0.0023327, "MEAN_MOTION_DOT": 0.00012472, "MEAN_MOTION_DDOT": 0}, "tle": {"line1": "1 34077U 97051CL  25343.48325955  .00012472  00000+0  23327-2 0  9995", "line2": "2 34077  86.3858  52.9416 0010536  49.8127 322.4549 14.64763438882850"}}, "geometry": {"type": "Point", "coordinates": [-139.48942943644064, 73.51566040488373]}}, {"type": "Feature", "properties": {"norad_id": 34079, "name": "IRIDIUM 33 DEB", "group": "iridium-33-debris", "lat": -73.81625861863596, "lon": -157.34983007709704, "alt_km": 628.3562893629933, "timestamp": "2025-12-09T16:56:36.959138+00:00", "meta": {"OBJECT_NAME": "IRIDIUM 33 DEB", "OBJECT_ID": "1997-051CN", "EPOCH": "2025-12-09T03:09:08.419680", "MEAN_MOTION": 14.83376544, "ECCENTRICITY": 0.0006064, "INCLINATION": 86.3775, "RA_OF_ASC_NODE": 10.3028, "ARG_OF_PERICENTER": 19.2898, "MEAN_ANOMALY": 48.3139, "EPHEMERIS_TYPE": 0, "CLASSIFICATION_TYPE": "U", "NORAD_CAT_ID": 34079, "ELEMENT_SET_NO": 999, "REV_AT_EPOCH": 88924, "BSTAR": 0.0018399055, "MEAN_MOTION_DOT": 0.0001513, "MEAN_MOTION_DDOT": 0}, "tle": {"line1": "1 34079U 97051CN  25343.13134745  .00015130  00000+0  18399-2 0  9991", "line2": "2 34079  86.3775  10.3028 0006064  19.2898  48.3139 14.83376544889242"}}, "geometry": {"type": "Point", "coordinates": [-157.34983007709704, -73.81625861863596]}}, {"type": "Feature", "properties": {"norad_id": 34088, "name": "IRIDIUM 33 DEB", "group": "iridium-33-debris", "lat": -79.85776689109633, "lon": -127.18340221252443, "alt_km": 600.6846239875213, "timestamp": "2025-12-09T16:56:36.959148+00:00", "meta": {"OBJECT_NAME": "IRIDIUM 33 DEB", "OBJECT_ID": "1997-051CX", "EPOCH": "2025-12-09T11:14:20.281056", "MEAN_MOTION": 14.91127801, "ECCENTRICITY": 0.0005477, "INCLINATION": 86.3845, "RA_OF_ASC_NODE": 32.2268, "ARG_OF_PERICENTER": 188.4748, "MEAN_ANOMALY": 236.8538, "EPHEMERIS_TYPE": 0, "CLASSIFICATION_TYPE": "U", "NORAD_CAT_ID": 34088, "ELEMENT_SET_NO": 999, "REV_AT_EPOCH": 88693, "BSTAR": 0.0032695, "MEAN_MOTION_DOT": 0.0003256, "MEAN_MOTION_DDOT": 0}, "tle": {"line1": "1 34088U 97051CX  25343.46829029  .00032560  00000+0  32695-2 0  9994", "line2": "2 34088  86.3845  32.2268 0005477 188.4748 236.8538 14.91127801886938"}}, "geometry": {"type": "Point", "coordinates": [-127.18340221252443, -79.85776689109633]}}, {"type": "Feature", "properties": {"norad_id": 34091, "name": "IRIDIUM 33 DEB", "group": "iridium-33-debris", "lat": -10.691558846675056, "lon": -111.08511299658929, "alt_km": 638.4557594898642, "timestamp": "2025-12-09T16:56:36.959159+00:00", "meta": {"OBJECT_NAME": "IRIDIUM 33 DEB", "OBJECT_ID": "1997-051DA", "EPOCH": "2025-12-09T06:21:21.737088", "MEAN_MOTION": 14.81387493, "ECCENTRICITY": 0.0033239, "INCLINATION": 86.3413, "RA_OF_ASC_NODE": 68.4246, "ARG_OF_PERICENTER": 305.7588, "MEAN_ANOMALY": 54.0544, "EPHEMERIS_TYPE": 0, "CLASSIFICATION_TYPE": "U", "NORAD_CAT_ID": 34091, "ELEMENT_SET_NO": 999, "REV_AT_EPOCH": 87815, "BSTAR": 0.0066531, "MEAN_MOTION_DOT": 0.00052856, "MEAN_MOTION_DDOT": 0}, "tle": {"line1": "1 34091U 97051DA  25343.26483492  .00052856  00000+0  66531-2 0  9992", "line2": "2 34091  86.3413  68.4246 0033239 305.7588  54.0544 14.81387493878159"}}, "geometry": {"type": "Point", "coordinates": [-111.08511299658929, -10.691558846675056]}}, {"type": "Feature", "properties": {"norad_id": 34097, "name": "IRIDIUM 33 DEB", "group": "iridium-33-debris", "lat": -49.81718438725912, "lon": -172.73992076077562, "alt_km": 829.6463824285429, "timestamp": "2025-12-09T16:56:36.959169+00:00", "meta": {"OBJECT_NAME": "IRIDIUM 33 DEB", "OBJECT_ID": "1997-051DG", "EPOCH": "2025-12-09T02:28:58.444608", "MEAN_MOTION": 14.34730397, "ECCENTRICITY": 0.00830075, "INCLINATION": 86.2001, "RA_OF_ASC_NODE": 3.0124, "ARG_OF_PERICENTER": 14.0258, "MEAN_ANOMALY": 346.3214, "EPHEMERIS_TYPE": 0, "CLASSIFICATION_TYPE": "U", "NORAD_CAT_ID": 34097, "ELEMENT_SET_NO": 999, "REV_AT_EPOCH": 87067, "BSTAR": 0.0016398077, "MEAN_MOTION_DOT": 4.847e-05, "MEAN_MOTION_DDOT": 0}, "tle": {"line1": "1 34097U 97051DG  25343.10345422  .00004847  00000+0  16398-2 0  9994", "line2": "2 34097  86.2001   3.0124 0083007  14.0258 346.3214 14.34730397870672"}}, "geometry": {"type": "Point", "coordinates": [-172.73992076077562, -49.81718438725912]}}, {"type": "Feature", "properties": {"norad_id": 34145, "name": "IRIDIUM 33 DEB", "group": "iridium-33-debris", "lat": 57.09110004740226, "lon": -20.246466788246714, "alt_km": 718.0302816177445, "timestamp": "2025-12-09T16:56:36.959179+00:00", "meta": {"OBJECT_NAME": "IRIDIUM 33 DEB", "OBJECT_ID": "1997-051DY", "EPOCH": "2025-12-09T10:01:09.026112", "MEAN_MOTION": 14.42251473, "ECCENTRICITY": 0.0055616, "INCLINATION": 86.2119, "RA_OF_ASC_NODE": 334.0058, "ARG_OF_PERICENTER": 104.3525, "MEAN_ANOMALY": 256.3858, "EPHEMERIS_TYPE": 0, "CLASSIFICATION_TYPE": "U", "NORAD_CAT_ID": 34145, "ELEMENT_SET_NO": 999, "REV_AT_EPOCH": 87590, "BSTAR": 0.0016534, "MEAN_MOTION_DOT": 5.573e-05, "MEAN_MOTION_DDOT": 0}, "tle": {"line1": "1 34145U 97051DY  25343.41746558  .00005573  00000+0  16534-2 0  9996", "line2": "2 34145  86.2119 334.0058 0055616 104.3525 256.3858 14.42251473875901"}}, "geometry": {"type": "Point", "coordinates": [-20.246466788246714, 57.09110004740226]}}, {"type": "Feature", "properties": {"norad_id": 34146, "name": "IRIDIUM 33 DEB", "group": "iridium-33-debris", "lat": -18.06998291570309, "lon": -10.074655479789488, "alt_km": 739.9207006911656, "timestamp": "2025-12-09T16:56:36.959190+00:00", "meta": {"OBJECT_NAME": "IRIDIUM 33 DEB", "OBJECT_ID": "1997-051DZ", "EPOCH": "2025-12-09T11:08:14.289792", "MEAN_MOTION": 14.49013185, "ECCENTRICITY": 0.002523, "INCLINATION": 86.2836, "RA_OF_ASC_NODE": 351.2473, "ARG_OF_PERICENTER": 233.2613, "MEAN_ANOMALY": 287.271, "EPHEMERIS_TYPE": 0, "CLASSIFICATION_TYPE": "U", "NORAD_CAT_ID": 34146, "ELEMENT_SET_NO": 999, "REV_AT_EPOCH": 88059, "BSTAR": 0.0014596, "MEAN_MOTION_DOT": 5.577e-05, "MEAN_MOTION_DDOT": 0}, "tle": {"line1": "1 34146U 97051DZ  25343.46405428  .00005577  00000+0  14596-2 0  9990", "line2": "2 34146  86.2836 351.2473 0025230 233.2613 287.2710 14.49013185880593"}}, "geometry": {"type": "Point", "coordinates": [-10.074655479789488, -18.06998291570309]}}, {"type": "Feature", "properties": {"norad_id": 34159, "name": "IRIDIUM 33 DEB", "group": "iridium-33-debris", "lat": 8.534566287912215, "lon": -131.0136507666264, "alt_km": 776.6161354383803, "timestamp": "2025-12-09T16:56:36.959200+00:00", "meta": {"OBJECT_NAME": "IRIDIUM 33 DEB", "OBJECT_ID": "1997-051EN", "EPOCH": "2025-12-09T11:08:19.876416", "MEAN_MOTION": 14.38481589, "ECCENTRICITY": 0.0026019, "INCLINATION": 86.3512, "RA_OF_ASC_NODE": 49.6381, "ARG_OF_PERICENTER": 299.3845, "MEAN_ANOMALY": 60.4755, "EPHEMERIS_TYPE": 0, "CLASSIFICATION_TYPE": "U", "NORAD_CAT_ID": 34159, "ELEMENT_SET_NO": 999, "REV_AT_EPOCH": 87912, "BSTAR": 0.00068608, "MEAN_MOTION_DOT": 2.121e-05, "MEAN_MOTION_DDOT": 0}, "tle": {"line1": "1 34159U 97051EN  25343.46411894  .00002121  00000+0  68608-3 0  9994", "line2": "2 34159  86.3512  49.6381 0026019 299.3845  60.4755 14.38481589879123"}}, "geometry": {"type": "Point", "coordinates": [-131.0136507666264, 8.534566287912215]}}, {"type": "Feature", "properties": {"norad_id": 34350, "name": "IRIDIUM 33 DEB", "group": "iridium-33-debris", "lat": 54.68589019704084, "lon": 178.92248231710514, "alt_km": 720.6058740398721, "timestamp": "2025-12-09T16:56:36.959211+00:00", "meta": {"OBJECT_NAME": "IRIDIUM 33 DEB", "OBJECT_ID": "1997-051ES", "EPOCH": "2025-12-09T01:39:34.597152", "MEAN_MOTION": 14.45373278, "ECCENTRICITY": 0.00224735, "INCLINATION": 86.3277, "RA_OF_ASC_NODE": 4.4002, "ARG_OF_PERICENTER": 146.6467, "MEAN_ANOMALY": 266.9742, "EPHEMERIS_TYPE": 0, "CLASSIFICATION_TYPE": "U", "NORAD_CAT_ID": 34350, "ELEMENT_SET_NO": 999, "REV_AT_EPOCH": 88240, "BSTAR": 0.00045977346, "MEAN_MOTION_DOT": 1.641e-05, "MEAN_MOTION_DDOT": 0}, "tle": {"line1": "1 34350U 97051ES  25343.06915043  .00001641  00000+0  45977-3 0  9998", "line2": "2 34350  86.3277   4.4002 0022473 146.6467 266.9742 14.45373278882404"}}, "geometry": {"type": "Point", "coordinates": [178.92248231710514, 54.68589019704084]}}, {"type": "Feature", "properties": {"norad_id": 34366, "name": "IRIDIUM 33 DEB", "group": "iridium-33-debris", "lat": -1.500815359897428, "lon": 50.53732080088104, "alt_km": 729.5418332814097, "timestamp": "2025-12-09T16:56:36.959221+00:00", "meta": {"OBJECT_NAME": "IRIDIUM 33 DEB", "OBJECT_ID": "1997-051FJ", "EPOCH": "2025-12-09T05:39:10.972224", "MEAN_MOTION": 14.54009131, "ECCENTRICITY": 0.0022205, "INCLINATION": 86.3692, "RA_OF_ASC_NODE": 50.8372, "ARG_OF_PERICENTER": 150.759, "MEAN_ANOMALY": 267.0776, "EPHEMERIS_TYPE": 0, "CLASSIFICATION_TYPE": "U", "NORAD_CAT_ID": 34366, "ELEMENT_SET_NO": 999, "REV_AT_EPOCH": 88131, "BSTAR": 0.0015877, "MEAN_MOTION_DOT": 6.735e-05, "MEAN_MOTION_DDOT": 0}, "tle": {"line1": "1 34366U 97051FJ  25343.23554366  .00006735  00000+0  15877-2 0  9995", "line2": "2 34366  86.3692  50.8372 0022205 150.7590 267.0776 14.54009131881315"}}, "geometry": {"type": "Point", "coordinates": [50.53732080088104, -1.500815359897428]}}]}